CUTE-1 (CO-55)          
1 27844U 03031E   26180.96278102  .00000311  00000+0  15340-3 0  9994
2 27844  98.6736 189.3610 0010300 142.4898 217.7002 14.24343456193495
CUBESAT XI-IV (CO-57)   
1 27848U 03031J   26180.95765288  .00000265  00000+0  13524-3 0  9993
2 27848  98.6768 189.0585 0009785 160.0224 200.1339 14.23627529193197
CUBESAT XI-V            
1 28895U 05043F   26181.38022833  .00001474  00000+0  23930-3 0  9996
2 28895  98.2997 337.2799 0014555 159.1785 201.0018 14.72666866103697
CUTE-1.7+APD II (CO-65) 
1 32785U 08021C   26181.90410523  .00006246  00000+0  39271-3 0  9990
2 32785  97.8277 163.6092 0008343 353.8855   6.2270 15.09581069987262
CANX-2                  
1 32790U 08021H   26181.91197402  .00003929  00000+0  27592-3 0  9993
2 32790  97.8633 161.9575 0010259   7.4385 352.6991 15.05711696986871
SEEDS II (CO-66)        
1 32791U 08021J   26181.97379828  .00021117  00000+0  65942-3 0  9994
2 32791  97.7516 180.5337 0001254 192.0562 168.0649 15.33219425989402
SWISSCUBE               
1 35932U 09051B   26181.98887035  .00001050  00000+0  21681-3 0  9999
2 35932  98.4025  90.1172 0006967 158.7249 201.4242 14.62507548891179
BEESAT-1                
1 35933U 09051C   26181.52633795  .00000828  00000+0  17586-3 0  9993
2 35933  98.3953  89.2540 0005133 171.1167 189.0125 14.61741181891138
ITUPSAT1                
1 35935U 09051E   26180.70676922  .00000759  00000+0  16668-3 0  9996
2 35935  98.4038  87.6006 0006953 190.2945 169.8114 14.60458458890562
TISAT 1                 
1 36799U 10035E   26181.83384131  .00023408  00000+0  75355-3 0  9996
2 36799  98.0710 129.5985 0003222 145.2416 214.9035 15.32224933869799
AEROCUBE 4.5A           
1 38767U 12048K   26180.81601320  .02026816  74244-5  11805-2 0  9992
2 38767  64.6148 340.0554 0018867 267.4936  92.4076 16.17962819374686
STRAND-1                
1 39090U 13009E   26181.49298304  .00000291  00000+0  11203-3 0  9992
2 39090  98.3924   1.4000 0008490 183.0829 177.0307 14.37171160698970
BRITE-AUSTRIA           
1 39091U 13009F   26181.92952767  .00000187  00000+0  78102-4 0  9997
2 39091  98.3999   1.0254 0009855 192.4846 167.6098 14.36547510699023
NEE-01 PEGASO           
1 39151U 13018B   26181.86443649  .00002902  00000+0  27950-3 0  9992
2 39151  98.1239 326.4679 0013673 117.3878 242.8734 14.93727352712749
POPACS 2                
1 39269U 13055E   26181.19306930  .00014049  00000+0  23497-3 0  9997
2 39269  80.9915 129.3032 0416257 152.0121 210.4183 14.91555130665156
POPACS 3                
1 39270U 13055F   26181.51736702  .00010184  00000+0  24028-3 0  9996
2 39270  80.9995 214.7325 0550745  29.4231 333.6798 14.56368469640498
ZACUBE-1 (TSHEPISOSAT)  
1 39417U 13066B   26181.93805937  .00003400  00000+0  26440-3 0  9997
2 39417  97.8043 144.3451 0042723 201.2286 158.7167 15.01262799682797
WNISAT-1                
1 39423U 13066H   26181.86765759  .00001323  00000+0  24839-3 0  9995
2 39423  97.7218 330.0540 0162853 188.3213 171.5282 14.58090821668726
TRITON-1                
1 39427U 13066M   26181.93683253  .00001525  00000+0  18724-3 0  9995
2 39427  97.8244  91.4313 0089400 188.5240 171.4460 14.81749463676123
GOMX-1                  
1 39430U 13066Q   26181.94053818  .00001660  00000+0  25369-3 0  9991
2 39430  97.6471  21.5352 0129513  33.8479 327.0909 14.69505727671930
CUBEBUG-2 (LO-74)       
1 39440U 13066AA  26181.79482018  .00004655  00000+0  43003-3 0  9995
2 39440  97.8910 130.8314 0056909 344.0423  15.9001 14.93871723679020
NEE-02 KRYSAOR          
1 39441U 13066AB  26181.80508646  .00002498  00000+0  27637-3 0  9992
2 39441  97.8896 120.9230 0066765  26.4051 334.0541 14.86680801678222
FUNCUBE-1 (AO-73)       
1 39444U 13066AE  26181.84406837  .00007343  00000+0  45304-3 0  9993
2 39444  97.8284 153.5766 0037139 154.4436 205.8639 15.09653397681722
UWE-3                   
1 39446U 13066AG  26181.85061510  .00003219  00000+0  27807-3 0  9997
2 39446  97.8711 138.0184 0047037 274.5118  85.0730 14.97126889679623
BRITE-CA1 (TORONTO)     
1 40020U 14033L   26181.35487269  .00000937  00000+0  14834-3 0  9990
2 40020  97.9755 310.0412 0077486 234.1487 125.2508 14.72697519644156
DUCHIFAT-1              
1 40021U 14033M   26181.88812847  .00158253  00000+0  14341-2 0  9990
2 40021  98.0445 243.0028 0000257 110.0507 250.0780 15.67539808657895
NANOSATC-BR1            
1 40024U 14033Q   26180.55297817  .00015457  00000+0  50485-3 0  9998
2 40024  98.0715 214.0382 0005163 133.3825 226.7845 15.31847627655871
QB50P1                  
1 40025U 14033R   26181.26463463  .00007596  00000+0  37202-3 0  9997
2 40025  98.0957 193.3288 0009192 170.0607 190.0809 15.18453201655011
QB50P2                  
1 40032U 14033Y   26180.97746561  .00007152  00000+0  38307-3 0  9990
2 40032  98.0748 178.6550 0009096 125.6149 234.5930 15.15322126654606
PERSEUS-M2              
1 40037U 14033AD  26181.91289975  .00000360  00000+0  37993-4 0  9996
2 40037  97.9970 132.7341 0010317 254.1377 105.8706 14.95547331652832
